1 08820U 76039A   03169.36545147  .00000003  00000-0  10000-3 0  9253
2 08820 109.8031 182.0033 0044516 301.2268  58.4024  6.38664438377133
